[{"OBJECT_NAME":"GPS BIIR-08","OBJECT_ID":"2003-005A","EPOCH":"2026-03-29T01:56:38.812128","MEAN_MOTION":2.0056484,"ECCENTRICITY":0.0148521,"INCLINATION":54.9007,"RA_OF_ASC_NODE":218.1499,"ARG_OF_PERICENTER":52.8613,"MEAN_ANOMALY":126.2596,"EPHEMERIS_TYPE":0,"CLASSIFICATION_TYPE":"U","NORAD_CAT_ID":27663,"ELEMENT_SET_NO":999,"REV_AT_EPOCH":16970,"BSTAR":0,"MEAN_MOTION_DOT":-3.9e-7,"MEAN_MOTION_DDOT":0},{"OBJECT_NAME":"GPS BIIR-11","OBJECT_ID":"2004-009A","EPOCH":"2026-03-28T08:46:59.974752","MEAN_MOTION":2.00557238,"ECCENTRICITY":0.01121577,"INCLINATION":54.8974,"RA_OF_ASC_NODE":278.9506,"ARG_OF_PERICENTER":169.767,"MEAN_ANOMALY":8.2543,"EPHEMERIS_TYPE":0,"CLASSIFICATION_TYPE":"U","NORAD_CAT_ID":28190,"ELEMENT_SET_NO":999,"REV_AT_EPOCH":16132,"BSTAR":0,"MEAN_MOTION_DOT":-1.0e-8,"MEAN_MOTION_DDOT":0},{"OBJECT_NAME":"GPS BIIR-13","OBJECT_ID":"2004-045A","EPOCH":"2026-03-26T07:19:28.719264","MEAN_MOTION":2.00574367,"ECCENTRICITY":0.0170517,"INCLINATION":55.1822,"RA_OF_ASC_NODE":328.236,"ARG_OF_PERICENTER":313.6726,"MEAN_ANOMALY":241.0281,"EPHEMERIS_TYPE":0,"CLASSIFICATION_TYPE":"U","NORAD_CAT_ID":28474,"ELEMENT_SET_NO":999,"REV_AT_EPOCH":15676,"BSTAR":0,"MEAN_MOTION_DOT":-7.3e-7,"MEAN_MOTION_DDOT":0},{"OBJECT_NAME":"GPS BIIR-14M","OBJECT_ID":"2005-038A","EPOCH":"2026-03-28T08:49:44.273856","MEAN_MOTION":2.00571249,"ECCENTRICITY":0.012819,"INCLINATION":54.9447,"RA_OF_ASC_NODE":276.4371,"ARG_OF_PERICENTER":295.6323,"MEAN_ANOMALY":268.7932,"EPHEMERIS_TYPE":0,"CLASSIFICATION_TYPE":"U","NORAD_CAT_ID":28874,"ELEMENT_SET_NO":999,"REV_AT_EPOCH":15021,"BSTAR":0,"MEAN_MOTION_DOT":0,"MEAN_MOTION_DDOT":0},{"OBJECT_NAME":"METEOSAT-9 (MSG-2)","OBJECT_ID":"2005-049B","EPOCH":"2026-03-28T13:17:21.413184","MEAN_MOTION":1.00272852,"ECCENTRICITY":1.89e-5,"INCLINATION":9.1814,"RA_OF_ASC_NODE":54.9434,"ARG_OF_PERICENTER":125.5968,"MEAN_ANOMALY":250.3933,"EPHEMERIS_TYPE":0,"CLASSIFICATION_TYPE":"U","NORAD_CAT_ID":28912,"ELEMENT_SET_NO":999,"REV_AT_EPOCH":619,"BSTAR":0,"MEAN_MOTION_DOT":1.11e-6,"MEAN_MOTION_DDOT":0},{"OBJECT_NAME":"GPS BIIR-16M","OBJECT_ID":"2006-052A","EPOCH":"2026-03-28T15:29:30.146784","MEAN_MOTION":2.00553221,"ECCENTRICITY":0.0087291,"INCLINATION":54.9511,"RA_OF_ASC_NODE":217.1971,"ARG_OF_PERICENTER":89.8188,"MEAN_ANOMALY":271.1436,"EPHEMERIS_TYPE":0,"CLASSIFICATION_TYPE":"U","NORAD_CAT_ID":29601,"ELEMENT_SET_NO":999,"REV_AT_EPOCH":14179,"BSTAR":0,"MEAN_MOTION_DOT":-3.6e-7,"MEAN_MOTION_DDOT":0},{"OBJECT_NAME":"GPS BIIR-17M","OBJECT_ID":"2007-047A","EPOCH":"2026-03-28T22:49:51.955392","MEAN_MOTION":2.00559375,"ECCENTRICITY":0.0163986,"INCLINATION":54.0359,"RA_OF_ASC_NODE":83.3707,"ARG_OF_PERICENTER":86.1699,"MEAN_ANOMALY":275.727,"EPHEMERIS_TYPE":0,"CLASSIFICATION_TYPE":"U","NORAD_CAT_ID":32260,"ELEMENT_SET_NO":999,"REV_AT_EPOCH":13520,"BSTAR":0,"MEAN_MOTION_DOT":2.5e-7,"MEAN_MOTION_DDOT":0},{"OBJECT_NAME":"GPS BIIR-18M","OBJECT_ID":"2007-062A","EPOCH":"2026-03-29T00:36:53.961120","MEAN_MOTION":2.00555011,"ECCENTRICITY":0.0033722,"INCLINATION":55.0963,"RA_OF_ASC_NODE":277.3729,"ARG_OF_PERICENTER":161.1106,"MEAN_ANOMALY":20.0101,"EPHEMERIS_TYPE":0,"CLASSIFICATION_TYPE":"U","NORAD_CAT_ID":32384,"ELEMENT_SET_NO":999,"REV_AT_EPOCH":13390,"BSTAR":0,"MEAN_MOTION_DOT":-7.0e-8,"MEAN_MOTION_DDOT":0},{"OBJECT_NAME":"GOES 14","OBJECT_ID":"2009-033A","EPOCH":"2026-03-29T05:19:50.388672","MEAN_MOTION":1.00108852,"ECCENTRICITY":0.0001735,"INCLINATION":1.4842,"RA_OF_ASC_NODE":84.0175,"ARG_OF_PERICENTER":278.8459,"MEAN_ANOMALY":90.5987,"EPHEMERIS_TYPE":0,"CLASSIFICATION_TYPE":"U","NORAD_CAT_ID":35491,"ELEMENT_SET_NO":999,"REV_AT_EPOCH":579,"BSTAR":0,"MEAN_MOTION_DOT":5.2e-7,"MEAN_MOTION_DDOT":0},{"OBJECT_NAME":"GOES 15","OBJECT_ID":"2010-008A","EPOCH":"2026-03-29T03:03:59.628672","MEAN_MOTION":1.00270431,"ECCENTRICITY":0.0002709,"INCLINATION":1.069,"RA_OF_ASC_NODE":84.4537,"ARG_OF_PERICENTER":19.253,"MEAN_ANOMALY":192.1222,"EPHEMERIS_TYPE":0,"CLASSIFICATION_TYPE":"U","NORAD_CAT_ID":36411,"ELEMENT_SET_NO":999,"REV_AT_EPOCH":5883,"BSTAR":0,"MEAN_MOTION_DOT":4.0e-8,"MEAN_MOTION_DDOT":0},{"OBJECT_NAME":"GSAT0101 (GALILEO-PFM)","OBJECT_ID":"2011-060A","EPOCH":"2026-03-27T07:30:55.432512","MEAN_MOTION":1.70475647,"ECCENTRICITY":0.00041176,"INCLINATION":57.0197,"RA_OF_ASC_NODE":343.984,"ARG_OF_PERICENTER":13.547,"MEAN_ANOMALY":346.4977,"EPHEMERIS_TYPE":0,"CLASSIFICATION_TYPE":"U","NORAD_CAT_ID":37846,"ELEMENT_SET_NO":999,"REV_AT_EPOCH":8972,"BSTAR":0,"MEAN_MOTION_DOT":-9.7e-7,"MEAN_MOTION_DDOT":0},{"OBJECT_NAME":"GSAT0102 (GALILEO-FM2)","OBJECT_ID":"2011-060B","EPOCH":"2026-03-28T16:54:53.054208","MEAN_MOTION":1.70475653,"ECCENTRICITY":0.0005116,"INCLINATION":57.0201,"RA_OF_ASC_NODE":343.9462,"ARG_OF_PERICENTER":21.556,"MEAN_ANOMALY":158.0911,"EPHEMERIS_TYPE":0,"CLASSIFICATION_TYPE":"U","NORAD_CAT_ID":37847,"ELEMENT_SET_NO":999,"REV_AT_EPOCH":8975,"BSTAR":0,"MEAN_MOTION_DOT":-9.9e-7,"MEAN_MOTION_DDOT":0},{"OBJECT_NAME":"LUCH 5A","OBJECT_ID":"2011-074B","EPOCH":"2026-03-28T19:00:03.552192","MEAN_MOTION":1.00269816,"ECCENTRICITY":0.00032325,"INCLINATION":8.551,"RA_OF_ASC_NODE":74.9754,"ARG_OF_PERICENTER":271.7532,"MEAN_ANOMALY":291.4452,"EPHEMERIS_TYPE":0,"CLASSIFICATION_TYPE":"U","NORAD_CAT_ID":37951,"ELEMENT_SET_NO":999,"REV_AT_EPOCH":5224,"BSTAR":0,"MEAN_MOTION_DOT":-6.3e-7,"MEAN_MOTION_DDOT":0},{"OBJECT_NAME":"METEOSAT-10 (MSG-3)","OBJECT_ID":"2012-035B","EPOCH":"2026-03-29T04:28:36.514272","MEAN_MOTION":1.00271476,"ECCENTRICITY":0.0002445,"INCLINATION":4.4835,"RA_OF_ASC_NODE":61.3515,"ARG_OF_PERICENTER":285.5286,"MEAN_ANOMALY":266.9163,"EPHEMERIS_TYPE":0,"CLASSIFICATION_TYPE":"U","NORAD_CAT_ID":38552,"ELEMENT_SET_NO":999,"REV_AT_EPOCH":5005,"BSTAR":0,"MEAN_MOTION_DOT":-2.2e-7,"MEAN_MOTION_DDOT":0},{"OBJECT_NAME":"SARSAT 13 (METOP-B)","OBJECT_ID":"2012-049A","EPOCH":"2026-03-29T03:42:24.493824","MEAN_MOTION":14.21424584,"ECCENTRICITY":0.0002057,"INCLINATION":98.6599,"RA_OF_ASC_NODE":141.2176,"ARG_OF_PERICENTER":189.0347,"MEAN_ANOMALY":171.0794,"EPHEMERIS_TYPE":0,"CLASSIFICATION_TYPE":"U","NORAD_CAT_ID":38771,"ELEMENT_SET_NO":999,"REV_AT_EPOCH":70189,"BSTAR":7.5061e-5,"MEAN_MOTION_DOT":1.21e-6,"MEAN_MOTION_DDOT":0},{"OBJECT_NAME":"GPS BIIF-3","OBJECT_ID":"2012-053A","EPOCH":"2026-03-27T01:15:46.012032","MEAN_MOTION":2.00566077,"ECCENTRICITY":0.0177237,"INCLINATION":53.5685,"RA_OF_ASC_NODE":146.9649,"ARG_OF_PERICENTER":64.9128,"MEAN_ANOMALY":296.9786,"EPHEMERIS_TYPE":0,"CLASSIFICATION_TYPE":"U","NORAD_CAT_ID":38833,"ELEMENT_SET_NO":999,"REV_AT_EPOCH":9779,"BSTAR":0,"MEAN_MOTION_DOT":-4.0e-8,"MEAN_MOTION_DDOT":0},{"OBJECT_NAME":"GSAT0103 (GALILEO-FM3)","OBJECT_ID":"2012-055A","EPOCH":"2026-03-27T08:29:07.581408","MEAN_MOTION":1.70473333,"ECCENTRICITY":0.0005825,"INCLINATION":55.7542,"RA_OF_ASC_NODE":103.7894,"ARG_OF_PERICENTER":290.2864,"MEAN_ANOMALY":69.7017,"EPHEMERIS_TYPE":0,"CLASSIFICATION_TYPE":"U","NORAD_CAT_ID":38857,"ELEMENT_SET_NO":999,"REV_AT_EPOCH":8361,"BSTAR":0,"MEAN_MOTION_DOT":3.9e-7,"MEAN_MOTION_DDOT":0}]
